[{"OBJECT_NAME":"STARLINK-32624","OBJECT_ID":"2024-207Q","EPOCH":"2026-03-09T22:11:11.509728","MEAN_MOTION":15.27600835,"ECCENTRICITY":0.00012,"INCLINATION":43.0012,"RA_OF_ASC_NODE":279.9264,"ARG_OF_PERICENTER":291.0268,"MEAN_ANOMALY":69.0455,"EPHEMERIS_TYPE":0,"CLASSIFICATION_TYPE":"U","NORAD_CAT_ID":61926,"ELEMENT_SET_NO":999,"REV_AT_EPOCH":7476,"BSTAR":0.0010669695,"MEAN_MOTION_DOT":0.00029234,"MEAN_MOTION_DDOT":0},{"OBJECT_NAME":"PELICAN-6","OBJECT_ID":"2025-276AP","EPOCH":"2026-03-09T16:58:12.890496","MEAN_MOTION":15.2637798,"ECCENTRICITY":0.0003569,"INCLINATION":97.4276,"RA_OF_ASC_NODE":144.2072,"ARG_OF_PERICENTER":157.8575,"MEAN_ANOMALY":202.2819,"EPHEMERIS_TYPE":0,"CLASSIFICATION_TYPE":"U","NORAD_CAT_ID":66703,"ELEMENT_SET_NO":999,"REV_AT_EPOCH":1533,"BSTAR":0.0029725783,"MEAN_MOTION_DOT":0.00077979,"MEAN_MOTION_DDOT":0}]
